STARLINK-5212           
1 54075U 22136AA  25098.27675643  .00007106  00000+0  46388-3 0  9994
2 54075  53.2176  44.4624 0001499  95.7848 264.3315 15.08860559136286
STARLINK-5201           
1 54076U 22136AB  25098.13563651 -.00002074  00000+0 -11225-3 0  9998
2 54076  53.2191  50.6800 0001290  97.7088 262.4051 15.08851720136181
STARLINK-5171           
1 54077U 22136AC  25098.09200581  .00000360  00000+0  40732-4 0  9994
2 54077  53.2181  26.3088 0001452  85.5188 274.5970 15.08828222136528
STARLINK-5138           
1 54078U 22136AD  25098.10706068  .00001276  00000+0  98283-4 0  9999
2 54078  53.2194  30.5649 0001648 112.4668 247.6499 15.08834727136460
STARLINK-5175           
1 54079U 22136AE  25098.26810795  .00013495  00000+0  86572-3 0  9993
2 54079  53.2191  40.1079 0001932  92.0956 268.0257 15.08781279136340
STARLINK-5160           
1 54080U 22136AF  25098.26210488  .00001436  00000+0  10830-3 0  9994
2 54080  53.2175  45.0749 0001407  97.4345 262.6807 15.08839511136276
STARLINK-5165           
1 54081U 22136AG  25098.24229535  .00000708  00000+0  62540-4 0  9993
2 54081  53.2184  39.9501 0001545  88.5050 271.6119 15.08845238136349
STARLINK-5210           
1 54082U 22136AH  25098.13192817  .00003038  00000+0  20888-3 0  9991
2 54082  53.2172  40.6800 0001386  94.7547 265.3604 15.08840509136324
STARLINK-5178           
1 54083U 22136AJ  25098.25335226 -.00000160  00000+0  80585-5 0  9994
2 54083  53.2186  40.0171 0001422 107.4589 252.6558 15.08840069136344
STARLINK-5183           
1 54084U 22136AK  25098.26072096  .00001352  00000+0  10299-3 0  9995
2 54084  53.2171  40.0611 0001288  82.9652 277.1486 15.08840669136344
STARLINK-5166           
1 54085U 22136AL  25098.11814681  .00004167  00000+0  27975-3 0  9990
2 54085  53.2171  40.5956 0001323  96.3200 263.7943 15.08843140136324
STARLINK-5211           
1 54086U 22136AM  25098.18666390  .00000712  00000+0  62826-4 0  9997
2 54086  53.2182  25.3522 0001364  88.3897 271.7252 15.08836197136545
STARLINK-5184           
1 54087U 22136AN  25098.14658989  .00000596  00000+0  55580-4 0  9998
2 54087  53.2192  40.0673 0001670  76.8753 283.2425 15.08829042136801
STARLINK-5153           
1 54088U 22136AP  25098.12456191  .00001898  00000+0  13733-3 0  9997
2 54088  53.2177  40.6341 0001586  93.6609 266.4565 15.08834343136321
STARLINK-5143           
1 54089U 22136AQ  25098.56612771  .00003416  00000+0  23261-3 0  9999
2 54089  53.2172  38.4160 0001377  85.4835 274.6314 15.08835270136399
STARLINK-5177           
1 54090U 22136AR  25098.56982328  .00001788  00000+0  13039-3 0  9991
2 54090  53.2175  38.4375 0001425  96.6491 263.4664 15.08843048136394
STARLINK-5221           
1 54091U 22136AS  25098.20914617  .00005092  00000+0  33788-3 0  9994
2 54091  53.2203  39.7475 0001689  91.3492 268.7694 15.08828114136340
STARLINK-5190           
1 54092U 22136AT  25098.38984693  .00029171  00000+0  69035-3 0  9993
2 54092  53.1910 340.6535 0004299  36.8532 323.2769 15.41577302137196
STARLINK-5213           
1 54093U 22136AU  25098.55507289  .00001215  00000+0  94415-4 0  9995
2 54093  53.2188  38.3461 0001447  83.4904 276.6253 15.08842778136864
STARLINK-5219           
1 54094U 22136AV  25098.56244168  .00000645  00000+0  58625-4 0  9990
2 54094  53.2190  38.3916 0001481  88.4084 271.7078 15.08842311136397
STARLINK-5193           
1 54095U 22136AW  25098.21650610  .00000274  00000+0  35317-4 0  9997
2 54095  53.2193  39.7843 0001526  91.0435 269.0732 15.08840484136346
STARLINK-5188           
1 54096U 22136AX  25098.55876058 -.00000557  00000+0 -16941-4 0  9999
2 54096  53.2186  38.3684 0001465  81.7780 278.3378 15.08831593136865
STARLINK-5197           
1 54097U 22136AY  25098.03670221 -.00000581  00000+0 -18459-4 0  9990
2 54097  53.2184  15.8540 0001441  77.6691 282.4462 15.08813904136668
STARLINK-5217           
1 54098U 22136AZ  25098.21386596  .00001112  00000+0  87920-4 0  9998
2 54098  53.2181  40.4630 0001318  90.3952 269.7191 15.08843588136337
STARLINK-5198           
1 54099U 22136BA  25098.27170282  .00002403  00000+0  16903-3 0  9994
2 54099  53.2195  39.4226 0003118  89.6823 270.4526 15.08842926136358
STARLINK-5185           
1 54100U 22136BB  25098.22019120  .00001581  00000+0  11739-3 0  9993
2 54100  53.2194  39.8105 0001551  94.5286 265.5883 15.08838231136341
STARLINK-5204           
1 54101U 22136BC  25098.08821208  .00001607  00000+0  11903-3 0  9998
2 54101  53.2176  25.4518 0001748  92.6786 267.4406 15.08847879136534
STARLINK-5179           
1 54102U 22136BD  25098.11718680 -.00000612  00000+0 -20369-4 0  9996
2 54102  53.2184  40.5773 0001493  97.0065 263.1097 15.08830717136320
STARLINK-5200           
1 54103U 22136BE  25098.08956533  .00001882  00000+0  13632-3 0  9996
2 54103  53.2198  20.4715 0001331  77.7478 282.3663 15.08835674136603
STARLINK-5203           
1 54104U 22136BF  25098.46442693  .00000993  00000+0  80458-4 0  9999
2 54104  53.2182   3.5608 0001387  83.9208 276.1942 15.08843228136875
STARLINK-5290           
1 54157U 22141A   25098.35365355  .00006275  00000+0  41191-3 0  9999
2 54157  53.2156  79.4503 0001849  77.8025 282.3174 15.08846152135090
STARLINK-5297           
1 54158U 22141B   25098.37112507 -.00000059  00000+0  14409-4 0  9999
2 54158  53.2160  79.5550 0001417  91.7031 268.4124 15.08834957135092
STARLINK-5294           
1 54159U 22141C   25098.23495603  .00001442  00000+0  10870-3 0  9999
2 54159  53.2164  80.1327 0001584  89.2947 270.8227 15.08836073135070
STARLINK-5233           
1 54160U 22141D   25098.14892321  .00001797  00000+0  13098-3 0  9997
2 54160  53.2187  35.3834 0001418  83.7421 276.3732 15.08838830135697
STARLINK-5269           
1 54161U 22141E   25098.36841409 -.00002316  00000+0 -12755-3 0  9992
2 54161  53.2172  79.5363 0001527  85.0448 275.0718 15.08815709135098
STARLINK-5273           
1 54162U 22141F   25098.36006359  .00001029  00000+0  82706-4 0  9992
2 54162  53.2171  79.4874 0001539  89.6004 270.5165 15.08846777135090
STARLINK-5161           
1 54163U 22141G   25098.17332808  .00002554  00000+0  17849-3 0  9992
2 54163  53.2169  70.4788 0001357  99.9940 260.1206 15.08836770135200
STARLINK-5278           
1 54164U 22141H   25098.17701474  .00000663  00000+0  59777-4 0  9998
2 54164  53.2168  70.5012 0001417  89.5420 270.5735 15.08836019135204
STARLINK-5279           
1 54165U 22141J   25098.22389949 -.00000888  00000+0 -37711-4 0  9999
2 54165  53.2161  80.0587 0001645  92.6969 267.4212 15.08849699135075
STARLINK-5280           
1 54166U 22141K   25098.30213933  .00000553  00000+0  52834-4 0  9998
2 54166  53.2182  69.8590 0001511  90.2272 269.8894 15.08826845135228
STARLINK-5243           
1 54167U 22141L   25098.33795789  .00000592  00000+0  55299-4 0  9997
2 54167  53.2167  79.3496 0001476  90.4822 269.6339 15.08841906135098
STARLINK-5245           
1 54168U 22141M   25098.16597019  .00001954  00000+0  14086-3 0  9996
2 54168  53.2184  70.4322 0001536  99.1333 260.9833 15.08837653135208
STARLINK-5282           
1 54169U 22141N   25098.11437519 -.00001616  00000+0 -83440-4 0  9998
2 54169  53.2169  70.1229 0001333  89.9296 270.1849 15.08843556135204
STARLINK-5155           
1 54170U 22141P   25098.29475418  .00001571  00000+0  11682-3 0  9995
2 54170  53.2169  69.8139 0001341  88.0167 272.0979 15.08833172135227
STARLINK-5229           
1 54171U 22141Q   25098.58335648  .01219287  00000+0  23980-1 0  9996
2 54171  53.2181  71.2128 0001167  71.0018 178.1360 15.43876567  5859
STARLINK-5117           
1 54172U 22141R   25098.28738121  .00000552  00000+0  52730-4 0  9997
2 54172  53.2172  69.7695 0000909  89.8060 270.3036 15.08842792135222
STARLINK-5242           
1 54173U 22141S   25098.18429816  .00000523  00000+0  50966-4 0  9992
2 54173  53.2169  69.8393 0001414  92.8293 267.2861 15.08836449135211
STARLINK-5248           
1 54174U 22141T   25098.45617203  .00004446  00000+0  29716-3 0  9998
2 54174  53.2173  13.7808 0001291  84.7818 275.3322 15.08850877136025
STARLINK-5256           
1 54175U 22141U   25098.29106859 -.00000067  00000+0  13883-4 0  9996
2 54175  53.2180  69.7915 0001450  95.7956 264.3201 15.08840332135226
STARLINK-5154           
1 54176U 22141V   25098.34256358  .00000949  00000+0  77696-4 0  9993
2 54176  53.2177  69.4018 0001405  90.6752 269.4401 15.08840777135234
STARLINK-5186           
1 54177U 22141W   25098.34994144  .00000969  00000+0  78959-4 0  9991
2 54177  53.2179  69.4480 0001509  98.6469 261.4694 15.08833482135239
STARLINK-5164           
1 54178U 22141X   25098.19533147  .00002459  00000+0  17252-3 0  9991
2 54178  53.2171  69.8879 0001435  87.1674 272.9482 15.08849069135215
STARLINK-5122           
1 54179U 22141Y   25098.34625824  .00004992  00000+0  33152-3 0  9994
2 54179  53.2173  69.4247 0001992  92.2494 267.8726 15.08843539135230
STARLINK-5228           
1 54180U 22141Z   25098.32413479  .00000735  00000+0  64222-4 0  9999
2 54180  53.2165  69.2904 0001557  88.2898 271.8272 15.08853659135236
STARLINK-5227           
1 54181U 22141AA  25098.20271707  .00001395  00000+0  10571-3 0  9993
2 54181  53.2162  69.9503 0001503  90.0438 270.0726 15.08852644135214
STARLINK-5231           
1 54182U 22141AB  25098.11347141 -.00001246  00000+0 -60224-4 0  9998
2 54182  53.2189  40.2130 0001539  68.7501 291.3656 15.08831965135620
STARLINK-5239           
1 54183U 22141AC  25098.18798518  .00000607  00000+0  56195-4 0  9994
2 54183  53.2167  69.8635 0001452  91.5371 268.5788 15.08840627135219
STARLINK-5162           
1 54184U 22141AD  25098.32517843  .00001464  00000+0  11003-3 0  9991
2 54184  53.2175  69.9871 0001382  94.5801 265.5349 15.08850630135221
STARLINK-5235           
1 54185U 22141AE  25098.33150743  .00000153  00000+0  27674-4 0  9991
2 54185  53.2169  69.3370 0001480  91.6078 268.5084 15.08842081135237
